[{"OBJECT_NAME":"STARLINK-36945","OBJECT_ID":"2026-041L","EPOCH":"2026-03-07T14:00:01.000224","MEAN_MOTION":15.9891159,"ECCENTRICITY":5.527e-5,"INCLINATION":53.1595,"RA_OF_ASC_NODE":73.0244,"ARG_OF_PERICENTER":71.2139,"MEAN_ANOMALY":178.6134,"EPHEMERIS_TYPE":0,"CLASSIFICATION_TYPE":"U","NORAD_CAT_ID":68050,"ELEMENT_SET_NO":999,"REV_AT_EPOCH":203,"BSTAR":-0.0028731372,"MEAN_MOTION_DOT":-0.01414494,"MEAN_MOTION_DDOT":0.00061666096},{"OBJECT_NAME":"STARLINK-35911","OBJECT_ID":"2026-041M","EPOCH":"2026-03-07T14:00:01.000224","MEAN_MOTION":15.99184419,"ECCENTRICITY":5.704e-5,"INCLINATION":53.1595,"RA_OF_ASC_NODE":73.0178,"ARG_OF_PERICENTER":68.9398,"MEAN_ANOMALY":184.164,"EPHEMERIS_TYPE":0,"CLASSIFICATION_TYPE":"U","NORAD_CAT_ID":68051,"ELEMENT_SET_NO":999,"REV_AT_EPOCH":199,"BSTAR":-0.0028371505,"MEAN_MOTION_DOT":-0.01418422,"MEAN_MOTION_DDOT":0.00062160697},{"OBJECT_NAME":"STARLINK-35808","OBJECT_ID":"2026-041N","EPOCH":"2026-03-07T14:00:01.000224","MEAN_MOTION":15.99305669,"ECCENTRICITY":5.756e-5,"INCLINATION":53.1591,"RA_OF_ASC_NODE":73.0144,"ARG_OF_PERICENTER":59.5471,"MEAN_ANOMALY":195.016,"EPHEMERIS_TYPE":0,"CLASSIFICATION_TYPE":"U","NORAD_CAT_ID":68052,"ELEMENT_SET_NO":999,"REV_AT_EPOCH":199,"BSTAR":-0.0027934603,"MEAN_MOTION_DOT":-0.01406362,"MEAN_MOTION_DDOT":0.00061277283},{"OBJECT_NAME":"STARLINK-36919","OBJECT_ID":"2026-041P","EPOCH":"2026-03-07T14:00:01.000224","MEAN_MOTION":15.99447385,"ECCENTRICITY":6.575e-5,"INCLINATION":53.1593,"RA_OF_ASC_NODE":73.0112,"ARG_OF_PERICENTER":65.9559,"MEAN_ANOMALY":190.2209,"EPHEMERIS_TYPE":0,"CLASSIFICATION_TYPE":"U","NORAD_CAT_ID":68053,"ELEMENT_SET_NO":999,"REV_AT_EPOCH":203,"BSTAR":-0.0028100384,"MEAN_MOTION_DOT":-0.01425877,"MEAN_MOTION_DDOT":0.00062936967},{"OBJECT_NAME":"STARLINK-36924","OBJECT_ID":"2026-041Q","EPOCH":"2026-03-07T14:00:01.000224","MEAN_MOTION":15.99675978,"ECCENTRICITY":6.35e-5,"INCLINATION":53.1593,"RA_OF_ASC_NODE":73.0057,"ARG_OF_PERICENTER":57.1714,"MEAN_ANOMALY":201.8072,"EPHEMERIS_TYPE":0,"CLASSIFICATION_TYPE":"U","NORAD_CAT_ID":68054,"ELEMENT_SET_NO":999,"REV_AT_EPOCH":203,"BSTAR":-0.0027255397,"MEAN_MOTION_DOT":-0.01401413,"MEAN_MOTION_DDOT":0.00061126618},{"OBJECT_NAME":"STARLINK-35998","OBJECT_ID":"2026-041R","EPOCH":"2026-03-07T14:00:01.000224","MEAN_MOTION":15.99551942,"ECCENTRICITY":5.359e-5,"INCLINATION":53.1593,"RA_OF_ASC_NODE":73.0082,"ARG_OF_PERICENTER":59.2251,"MEAN_ANOMALY":198.2902,"EPHEMERIS_TYPE":0,"CLASSIFICATION_TYPE":"U","NORAD_CAT_ID":68055,"ELEMENT_SET_NO":999,"REV_AT_EPOCH":199,"BSTAR":-0.0027480369,"MEAN_MOTION_DOT":-0.01403012,"MEAN_MOTION_DDOT":0.00061172377},{"OBJECT_NAME":"STARLINK-36845","OBJECT_ID":"2026-041S","EPOCH":"2026-03-07T14:00:01.000224","MEAN_MOTION":15.99798501,"ECCENTRICITY":5.696e-5,"INCLINATION":53.1591,"RA_OF_ASC_NODE":73.0027,"ARG_OF_PERICENTER":68.5703,"MEAN_ANOMALY":191.8297,"EPHEMERIS_TYPE":0,"CLASSIFICATION_TYPE":"U","NORAD_CAT_ID":68056,"ELEMENT_SET_NO":999,"REV_AT_EPOCH":203,"BSTAR":-0.002713746,"MEAN_MOTION_DOT":-0.01405072,"MEAN_MOTION_DDOT":0.00061500052},{"OBJECT_NAME":"STARLINK-36954","OBJECT_ID":"2026-041T","EPOCH":"2026-03-07T14:00:01.000224","MEAN_MOTION":15.99921036,"ECCENTRICITY":5.936e-5,"INCLINATION":53.1592,"RA_OF_ASC_NODE":72.9995,"ARG_OF_PERICENTER":62.9676,"MEAN_ANOMALY":198.89,"EPHEMERIS_TYPE":0,"CLASSIFICATION_TYPE":"U","NORAD_CAT_ID":68057,"ELEMENT_SET_NO":999,"REV_AT_EPOCH":203,"BSTAR":-0.0026979942,"MEAN_MOTION_DOT":-0.01406702,"MEAN_MOTION_DDOT":0.00061712307},{"OBJECT_NAME":"STARLINK-36899","OBJECT_ID":"2026-041U","EPOCH":"2026-03-07T14:00:01.000224","MEAN_MOTION":16.0002798,"ECCENTRICITY":6.089e-5,"INCLINATION":53.1593,"RA_OF_ASC_NODE":72.9972,"ARG_OF_PERICENTER":65.1313,"MEAN_ANOMALY":197.9576,"EPHEMERIS_TYPE":0,"CLASSIFICATION_TYPE":"U","NORAD_CAT_ID":68058,"ELEMENT_SET_NO":999,"REV_AT_EPOCH":203,"BSTAR":-0.0026793333,"MEAN_MOTION_DOT":-0.01405556,"MEAN_MOTION_DDOT":0.00061691831},{"OBJECT_NAME":"STARLINK-36917","OBJECT_ID":"2026-041V","EPOCH":"2026-03-07T14:00:01.000224","MEAN_MOTION":16.00164223,"ECCENTRICITY":6.811e-5,"INCLINATION":53.1592,"RA_OF_ASC_NODE":72.9939,"ARG_OF_PERICENTER":69.1165,"MEAN_ANOMALY":195.6356,"EPHEMERIS_TYPE":0,"CLASSIFICATION_TYPE":"U","NORAD_CAT_ID":68059,"ELEMENT_SET_NO":999,"REV_AT_EPOCH":203,"BSTAR":-0.0026518579,"MEAN_MOTION_DOT":-0.01402091,"MEAN_MOTION_DDOT":0.00061504889},{"OBJECT_NAME":"STARLINK-36959","OBJECT_ID":"2026-041W","EPOCH":"2026-03-07T14:00:01.000224","MEAN_MOTION":16.00266654,"ECCENTRICITY":3.865e-5,"INCLINATION":53.1591,"RA_OF_ASC_NODE":72.9908,"ARG_OF_PERICENTER":55.8903,"MEAN_ANOMALY":210.1397,"EPHEMERIS_TYPE":0,"CLASSIFICATION_TYPE":"U","NORAD_CAT_ID":68060,"ELEMENT_SET_NO":999,"REV_AT_EPOCH":203,"BSTAR":-0.0026048114,"MEAN_MOTION_DOT":-0.01385522,"MEAN_MOTION_DDOT":0.00060249747},{"OBJECT_NAME":"STARLINK-36915","OBJECT_ID":"2026-041X","EPOCH":"2026-03-07T14:00:01.000224","MEAN_MOTION":16.00394206,"ECCENTRICITY":6.33e-5,"INCLINATION":53.1591,"RA_OF_ASC_NODE":72.9878,"ARG_OF_PERICENTER":67.6819,"MEAN_ANOMALY":199.8025,"EPHEMERIS_TYPE":0,"CLASSIFICATION_TYPE":"U","NORAD_CAT_ID":68061,"ELEMENT_SET_NO":999,"REV_AT_EPOCH":203,"BSTAR":-0.0026071707,"MEAN_MOTION_DOT":-0.01396843,"MEAN_MOTION_DDOT":0.00061237716},{"OBJECT_NAME":"STARLINK-36952","OBJECT_ID":"2026-041Y","EPOCH":"2026-03-07T14:00:01.000224","MEAN_MOTION":16.00518443,"ECCENTRICITY":5.378e-5,"INCLINATION":53.1592,"RA_OF_ASC_NODE":72.9849,"ARG_OF_PERICENTER":63.1818,"MEAN_ANOMALY":205.8697,"EPHEMERIS_TYPE":0,"CLASSIFICATION_TYPE":"U","NORAD_CAT_ID":68062,"ELEMENT_SET_NO":999,"REV_AT_EPOCH":203,"BSTAR":-0.0025593514,"MEAN_MOTION_DOT":-0.01381253,"MEAN_MOTION_DDOT":0.00060075536},{"OBJECT_NAME":"STARLINK-37000","OBJECT_ID":"2026-041Z","EPOCH":"2026-03-07T14:00:01.000224","MEAN_MOTION":16.00653434,"ECCENTRICITY":5.361e-5,"INCLINATION":53.1591,"RA_OF_ASC_NODE":72.9813,"ARG_OF_PERICENTER":63.3204,"MEAN_ANOMALY":207.32,"EPHEMERIS_TYPE":0,"CLASSIFICATION_TYPE":"U","NORAD_CAT_ID":68063,"ELEMENT_SET_NO":999,"REV_AT_EPOCH":203,"BSTAR":-0.0025437522,"MEAN_MOTION_DOT":-0.01383525,"MEAN_MOTION_DDOT":0.00060345117},{"OBJECT_NAME":"STARLINK-36996","OBJECT_ID":"2026-041AA","EPOCH":"2026-03-07T14:00:01.000224","MEAN_MOTION":16.00790097,"ECCENTRICITY":5.551e-5,"INCLINATION":53.1591,"RA_OF_ASC_NODE":72.9781,"ARG_OF_PERICENTER":64.0998,"MEAN_ANOMALY":208.1653,"EPHEMERIS_TYPE":0,"CLASSIFICATION_TYPE":"U","NORAD_CAT_ID":68064,"ELEMENT_SET_NO":999,"REV_AT_EPOCH":203,"BSTAR":-0.0025440938,"MEAN_MOTION_DOT":-0.01394525,"MEAN_MOTION_DDOT":0.00061316744},{"OBJECT_NAME":"STARLINK-36836","OBJECT_ID":"2026-041AB","EPOCH":"2026-03-07T14:00:01.000224","MEAN_MOTION":16.01034353,"ECCENTRICITY":5.779e-5,"INCLINATION":53.1592,"RA_OF_ASC_NODE":72.9718,"ARG_OF_PERICENTER":65.0203,"MEAN_ANOMALY":210.1455,"EPHEMERIS_TYPE":0,"CLASSIFICATION_TYPE":"U","NORAD_CAT_ID":68065,"ELEMENT_SET_NO":999,"REV_AT_EPOCH":203,"BSTAR":-0.0024988837,"MEAN_MOTION_DOT":-0.01389312,"MEAN_MOTION_DDOT":0.00061061871}]
